{
  "type": "FeatureCollection",
  "features": [
    {
      "type": "Feature",
      "geometry": {
        "type": "Point",
        "coordinates": [
          13.72274750147288,
          -12.463349076956652
        ]
      },
      "properties": {
        "label": "Rejected way 343230501",
        "type": "Capacity regex no match",
        "osm_element": "https://www.openstreetmap.org/way/343230501",
        "rejection_reason": "Capacity regex no match",
        "rejection_details": "Tag 'plant:output:electricity' has value '22.8' which could not be parsed",
        "rejection_keywords": "22.8",
        "timestamp": "2026-07-01T00:50:59.818782",
        "element_type": "way",
        "element_id": 343230501,
        "country": "Angola",
        "unit_type": "plant"
      }
    },
    {
      "type": "Feature",
      "geometry": {
        "type": "Point",
        "coordinates": [
          13.197476805821728,
          -8.870361274339643
        ]
      },
      "properties": {
        "label": "Rejected way 473956004",
        "type": "Missing source tag",
        "osm_element": "https://www.openstreetmap.org/way/473956004",
        "rejection_reason": "Missing source tag",
        "rejection_details": "tags: {'landuse': 'industrial', 'power': 'plant'}",
        "rejection_keywords": "none",
        "timestamp": "2026-07-01T00:50:59.819228",
        "element_type": "way",
        "element_id": 473956004,
        "country": "Angola",
        "unit_type": "plant"
      }
    },
    {
      "type": "Feature",
      "geometry": {
        "type": "Point",
        "coordinates": [
          13.632139957371866,
          -12.457145286070018
        ]
      },
      "properties": {
        "label": "Rejected way 531017619",
        "type": "Capacity placeholder value",
        "osm_element": "https://www.openstreetmap.org/way/531017619",
        "rejection_reason": "Capacity placeholder value",
        "rejection_details": "Tag 'plant:output:electricity' contains placeholder value 'yes' instead of actual capacity",
        "rejection_keywords": "yes",
        "timestamp": "2026-07-01T00:50:59.819619",
        "element_type": "way",
        "element_id": 531017619,
        "country": "Angola",
        "unit_type": "plant"
      }
    },
    {
      "type": "Feature",
      "geometry": {
        "type": "Point",
        "coordinates": [
          13.24074050256138,
          -8.840139564812485
        ]
      },
      "properties": {
        "label": "Rejected way 532542586",
        "type": "Capacity regex no match",
        "osm_element": "https://www.openstreetmap.org/way/532542586",
        "rejection_reason": "Capacity regex no match",
        "rejection_details": "Tag 'plant:output:electricity' has value '32Mw' which could not be parsed",
        "rejection_keywords": "32Mw",
        "timestamp": "2026-07-01T00:50:59.819787",
        "element_type": "way",
        "element_id": 532542586,
        "country": "Angola",
        "unit_type": "plant"
      }
    },
    {
      "type": "Feature",
      "geometry": {
        "type": "Point",
        "coordinates": [
          13.513801383257528,
          -14.930944170625644
        ]
      },
      "properties": {
        "label": "Rejected way 663880503",
        "type": "Missing source tag",
        "osm_element": "https://www.openstreetmap.org/way/663880503",
        "rejection_reason": "Missing source tag",
        "rejection_details": "tags: {'addr:city': 'Lubango', 'addr:street': 'Rua 4 de Abril', 'landuse': 'industrial', 'name': 'Rede Nacional de Transporte de Electricidade (RNT)', 'operator': 'Ministério da Energia e Águas', 'power': 'plant', 'start_date': '1955', 'substation': 'substation'}",
        "rejection_keywords": "none",
        "timestamp": "2026-07-01T00:50:59.820728",
        "element_type": "way",
        "element_id": 663880503,
        "country": "Angola",
        "unit_type": "plant"
      }
    },
    {
      "type": "Feature",
      "geometry": {
        "type": "Point",
        "coordinates": [
          13.566460932036456,
          -9.107923526068042
        ]
      },
      "properties": {
        "label": "Rejected way 765804930",
        "type": "Missing source tag",
        "osm_element": "https://www.openstreetmap.org/way/765804930",
        "rejection_reason": "Missing source tag",
        "rejection_details": "tags: {'landuse': 'industrial', 'name': 'CIF Thermal Power Station', 'power': 'plant'}",
        "rejection_keywords": "none",
        "timestamp": "2026-07-01T00:50:59.823093",
        "element_type": "way",
        "element_id": 765804930,
        "country": "Angola",
        "unit_type": "plant"
      }
    },
    {
      "type": "Feature",
      "geometry": {
        "type": "Point",
        "coordinates": [
          13.460806422337562,
          -14.94873988087311
        ]
      },
      "properties": {
        "label": "Rejected way 901286518",
        "type": "Missing output tag",
        "osm_element": "https://www.openstreetmap.org/way/901286518",
        "rejection_reason": "Missing output tag",
        "rejection_details": "tags: {'landuse': 'industrial', 'name': 'Grupo Gerador', 'operator': 'DPEA', 'plant:method': 'combustion', 'plant:source': 'diesel', 'power': 'plant'}",
        "rejection_keywords": "none",
        "timestamp": "2026-07-01T00:50:59.824761",
        "element_type": "way",
        "element_id": 901286518,
        "country": "Angola",
        "unit_type": "plant"
      }
    },
    {
      "type": "Feature",
      "geometry": {
        "type": "Point",
        "coordinates": [
          13.513923311223754,
          -14.93162544165129
        ]
      },
      "properties": {
        "label": "Rejected way 903484955",
        "type": "Missing source tag",
        "osm_element": "https://www.openstreetmap.org/way/903484955",
        "rejection_reason": "Missing source tag",
        "rejection_details": "tags: {'addr:city': 'Lubango', 'addr:street': 'Rua 4 de Abril', 'landuse': 'industrial', 'name': 'Prodel - Empresa Pública de Produção de Eletricidade, E.P.', 'operator': 'Ministério da Energia e Águas', 'power': 'plant'}",
        "rejection_keywords": "none",
        "timestamp": "2026-07-01T00:50:59.825726",
        "element_type": "way",
        "element_id": 903484955,
        "country": "Angola",
        "unit_type": "plant"
      }
    },
    {
      "type": "Feature",
      "geometry": {
        "type": "Point",
        "coordinates": [
          13.891108643462713,
          -15.733911659843763
        ]
      },
      "properties": {
        "label": "Rejected way 915832054",
        "type": "Missing source tag",
        "osm_element": "https://www.openstreetmap.org/way/915832054",
        "rejection_reason": "Missing source tag",
        "rejection_details": "tags: {'barrier': 'fence', 'landuse': 'industrial', 'power': 'plant'}",
        "rejection_keywords": "none",
        "timestamp": "2026-07-01T00:50:59.825888",
        "element_type": "way",
        "element_id": 915832054,
        "country": "Angola",
        "unit_type": "plant"
      }
    },
    {
      "type": "Feature",
      "geometry": {
        "type": "Point",
        "coordinates": [
          17.979777275927038,
          -15.42889922335216
        ]
      },
      "properties": {
        "label": "Rejected way 1073959379",
        "type": "Capacity placeholder value",
        "osm_element": "https://www.openstreetmap.org/way/1073959379",
        "rejection_reason": "Capacity placeholder value",
        "rejection_details": "Tag 'plant:output:electricity' contains placeholder value 'yes' instead of actual capacity",
        "rejection_keywords": "yes",
        "timestamp": "2026-07-01T00:50:59.826608",
        "element_type": "way",
        "element_id": 1073959379,
        "country": "Angola",
        "unit_type": "plant"
      }
    },
    {
      "type": "Feature",
      "geometry": {
        "type": "Point",
        "coordinates": [
          16.898866721834512,
          -12.443795499457002
        ]
      },
      "properties": {
        "label": "Rejected way 1079921172",
        "type": "Missing output tag",
        "osm_element": "https://www.openstreetmap.org/way/1079921172",
        "rejection_reason": "Missing output tag",
        "rejection_details": "tags: {'landuse': 'industrial', 'name': 'Bie', 'operator': 'PRODEL', 'plant:method': 'combined_cycle', 'plant:source': 'diesel', 'power': 'plant', 'start_date': '2019'}",
        "rejection_keywords": "none",
        "timestamp": "2026-07-01T00:50:59.827961",
        "element_type": "way",
        "element_id": 1079921172,
        "country": "Angola",
        "unit_type": "plant"
      }
    },
    {
      "type": "Feature",
      "geometry": {
        "type": "Point",
        "coordinates": [
          13.426686969980485,
          -8.798965333556433
        ]
      },
      "properties": {
        "label": "Rejected way 1080608402",
        "type": "Capacity placeholder value",
        "osm_element": "https://www.openstreetmap.org/way/1080608402",
        "rejection_reason": "Capacity placeholder value",
        "rejection_details": "Tag 'plant:output:electricity' contains placeholder value 'yes' instead of actual capacity",
        "rejection_keywords": "yes",
        "timestamp": "2026-07-01T00:50:59.830020",
        "element_type": "way",
        "element_id": 1080608402,
        "country": "Angola",
        "unit_type": "plant"
      }
    },
    {
      "type": "Feature",
      "geometry": {
        "type": "Point",
        "coordinates": [
          13.165054695560407,
          -8.954023278784202
        ]
      },
      "properties": {
        "label": "Rejected way 1080619676",
        "type": "Capacity placeholder value",
        "osm_element": "https://www.openstreetmap.org/way/1080619676",
        "rejection_reason": "Capacity placeholder value",
        "rejection_details": "Tag 'plant:output:electricity' contains placeholder value 'yes' instead of actual capacity",
        "rejection_keywords": "yes",
        "timestamp": "2026-07-01T00:50:59.830191",
        "element_type": "way",
        "element_id": 1080619676,
        "country": "Angola",
        "unit_type": "plant"
      }
    },
    {
      "type": "Feature",
      "geometry": {
        "type": "Point",
        "coordinates": [
          14.983637169948084,
          -16.765295111400068
        ]
      },
      "properties": {
        "label": "Rejected way 1111487006",
        "type": "Missing source type",
        "osm_element": "https://www.openstreetmap.org/way/1111487006",
        "rejection_reason": "Missing source type",
        "rejection_details": "Source value 'solar_radiation;diesel' from tag 'generator:source' is not recognized",
        "rejection_keywords": "solar_radiation;diesel",
        "timestamp": "2026-07-01T00:50:59.830760",
        "element_type": "way",
        "element_id": 1111487006,
        "country": "Angola",
        "unit_type": "plant"
      }
    },
    {
      "type": "Feature",
      "geometry": {
        "type": "Point",
        "coordinates": [
          15.76738024344213,
          -12.84961719406359
        ]
      },
      "properties": {
        "label": "Rejected way 1208245384",
        "type": "Capacity regex no match",
        "osm_element": "https://www.openstreetmap.org/way/1208245384",
        "rejection_reason": "Capacity regex no match",
        "rejection_details": "Tag 'plant:output:electricity' has value '8' which could not be parsed",
        "rejection_keywords": "8",
        "timestamp": "2026-07-01T00:50:59.831834",
        "element_type": "way",
        "element_id": 1208245384,
        "country": "Angola",
        "unit_type": "plant"
      }
    },
    {
      "type": "Feature",
      "geometry": {
        "type": "Point",
        "coordinates": [
          13.433351876207137,
          -8.765204472399367
        ]
      },
      "properties": {
        "label": "Rejected way 1208441734",
        "type": "Capacity placeholder value",
        "osm_element": "https://www.openstreetmap.org/way/1208441734",
        "rejection_reason": "Capacity placeholder value",
        "rejection_details": "Tag 'plant:output:electricity' contains placeholder value 'yes' instead of actual capacity",
        "rejection_keywords": "yes",
        "timestamp": "2026-07-01T00:50:59.832005",
        "element_type": "way",
        "element_id": 1208441734,
        "country": "Angola",
        "unit_type": "plant"
      }
    },
    {
      "type": "Feature",
      "geometry": {
        "type": "Point",
        "coordinates": [
          15.724389891616822,
          -9.580055674683658
        ]
      },
      "properties": {
        "label": "Rejected way 1236402273",
        "type": "Missing output tag",
        "osm_element": "https://www.openstreetmap.org/way/1236402273",
        "rejection_reason": "Missing output tag",
        "rejection_details": "tags: {'landuse': 'industrial', 'name': 'Biocom Power Plant', 'name:en': 'Biocom Power Plant', 'plant:source': 'biomass', 'power': 'plant', 'source': 'https://www.gem.wiki/Biocom_power_station'}",
        "rejection_keywords": "none",
        "timestamp": "2026-07-01T00:50:59.832531",
        "element_type": "way",
        "element_id": 1236402273,
        "country": "Angola",
        "unit_type": "plant"
      }
    },
    {
      "type": "Feature",
      "geometry": {
        "type": "Point",
        "coordinates": [
          13.297757607571095,
          -8.781100324432838
        ]
      },
      "properties": {
        "label": "Rejected way 1280397201",
        "type": "Missing source tag",
        "osm_element": "https://www.openstreetmap.org/way/1280397201",
        "rejection_reason": "Missing source tag",
        "rejection_details": "tags: {'landuse': 'industrial', 'name': 'Sonangol Luanda Refinery Power Station', 'name:en': 'Sonangol Luanda Refinery Power Station', 'power': 'plant'}",
        "rejection_keywords": "none",
        "timestamp": "2026-07-01T00:50:59.833203",
        "element_type": "way",
        "element_id": 1280397201,
        "country": "Angola",
        "unit_type": "plant"
      }
    },
    {
      "type": "Feature",
      "geometry": {
        "type": "Point",
        "coordinates": [
          13.891097136811597,
          -15.730336036878155
        ]
      },
      "properties": {
        "label": "Rejected way 1298631571",
        "type": "Capacity placeholder value",
        "osm_element": "https://www.openstreetmap.org/way/1298631571",
        "rejection_reason": "Capacity placeholder value",
        "rejection_details": "Tag 'plant:output:electricity' contains placeholder value 'yes' instead of actual capacity",
        "rejection_keywords": "yes",
        "timestamp": "2026-07-01T00:50:59.833332",
        "element_type": "way",
        "element_id": 1298631571,
        "country": "Angola",
        "unit_type": "plant"
      }
    },
    {
      "type": "Feature",
      "geometry": {
        "type": "Point",
        "coordinates": [
          13.36562046863806,
          -9.116150982126724
        ]
      },
      "properties": {
        "label": "Rejected way 1314817572",
        "type": "Missing source tag",
        "osm_element": "https://www.openstreetmap.org/way/1314817572",
        "rejection_reason": "Missing source tag",
        "rejection_details": "tags: {'landuse': 'industrial', 'name': 'Central Térmica do Cassaque', 'plant:method': 'combustion', 'plant:output:electricity': '24 MW', 'power': 'plant', 'website': 'https://grdservices.co.ao/project/cassaque/'}",
        "rejection_keywords": "none",
        "timestamp": "2026-07-01T00:50:59.833575",
        "element_type": "way",
        "element_id": 1314817572,
        "country": "Angola",
        "unit_type": "plant"
      }
    },
    {
      "type": "Feature",
      "geometry": {
        "type": "Point",
        "coordinates": [
          20.423143910135266,
          -9.614980170390476
        ]
      },
      "properties": {
        "label": "Rejected way 1323735847",
        "type": "Missing output tag",
        "osm_element": "https://www.openstreetmap.org/way/1323735847",
        "rejection_reason": "Missing output tag",
        "rejection_details": "tags: {'barrier': 'fence', 'name': 'Saurimo Diamond Hub Hybrid Power Station', 'operator': 'Saurimo Diamond Hub', 'plant:method': 'photovoltaic;diesel', 'plant:source': 'solar', 'power': 'plant'}",
        "rejection_keywords": "none",
        "timestamp": "2026-07-01T00:50:59.833803",
        "element_type": "way",
        "element_id": 1323735847,
        "country": "Angola",
        "unit_type": "plant"
      }
    },
    {
      "type": "Feature",
      "geometry": {
        "type": "Point",
        "coordinates": [
          15.266998934571342,
          -12.916486526111898
        ]
      },
      "properties": {
        "label": "Rejected way 1395054846",
        "type": "Missing output tag",
        "osm_element": "https://www.openstreetmap.org/way/1395054846",
        "rejection_reason": "Missing output tag",
        "rejection_details": "tags: {'plant:source': 'solar', 'power': 'plant'}",
        "rejection_keywords": "none",
        "timestamp": "2026-07-01T00:50:59.834097",
        "element_type": "way",
        "element_id": 1395054846,
        "country": "Angola",
        "unit_type": "plant"
      }
    },
    {
      "type": "Feature",
      "geometry": {
        "type": "Point",
        "coordinates": [
          14.063794758284136,
          -11.567992623132145
        ]
      },
      "properties": {
        "label": "Rejected way 1424103703",
        "type": "Capacity placeholder value",
        "osm_element": "https://www.openstreetmap.org/way/1424103703",
        "rejection_reason": "Capacity placeholder value",
        "rejection_details": "Tag 'plant:output:electricity' contains placeholder value 'yes' instead of actual capacity",
        "rejection_keywords": "yes",
        "timestamp": "2026-07-01T00:50:59.834254",
        "element_type": "way",
        "element_id": 1424103703,
        "country": "Angola",
        "unit_type": "plant"
      }
    },
    {
      "type": "Feature",
      "geometry": {
        "type": "Point",
        "coordinates": [
          16.857366085182747,
          -12.419945600013977
        ]
      },
      "properties": {
        "label": "Rejected way 1424448400",
        "type": "Missing output tag",
        "osm_element": "https://www.openstreetmap.org/way/1424448400",
        "rejection_reason": "Missing output tag",
        "rejection_details": "tags: {'plant:source': 'solar', 'power': 'plant'}",
        "rejection_keywords": "none",
        "timestamp": "2026-07-01T00:50:59.834378",
        "element_type": "way",
        "element_id": 1424448400,
        "country": "Angola",
        "unit_type": "plant"
      }
    },
    {
      "type": "Feature",
      "geometry": {
        "type": "Point",
        "coordinates": [
          13.662218938287875,
          -15.281992940035451
        ]
      },
      "properties": {
        "label": "Rejected way 1424448574",
        "type": "Missing output tag",
        "osm_element": "https://www.openstreetmap.org/way/1424448574",
        "rejection_reason": "Missing output tag",
        "rejection_details": "tags: {'plant:source': 'solar', 'power': 'plant'}",
        "rejection_keywords": "none",
        "timestamp": "2026-07-01T00:50:59.834552",
        "element_type": "way",
        "element_id": 1424448574,
        "country": "Angola",
        "unit_type": "plant"
      }
    },
    {
      "type": "Feature",
      "geometry": {
        "type": "Point",
        "coordinates": [
          16.010361923264263,
          -7.3118773962949986
        ]
      },
      "properties": {
        "label": "Rejected way 1424448863",
        "type": "Missing output tag",
        "osm_element": "https://www.openstreetmap.org/way/1424448863",
        "rejection_reason": "Missing output tag",
        "rejection_details": "tags: {'plant:source': 'solar', 'power': 'plant'}",
        "rejection_keywords": "none",
        "timestamp": "2026-07-01T00:50:59.834706",
        "element_type": "way",
        "element_id": 1424448863,
        "country": "Angola",
        "unit_type": "plant"
      }
    },
    {
      "type": "Feature",
      "geometry": {
        "type": "Point",
        "coordinates": [
          14.026298591606151,
          -11.193022286247851
        ]
      },
      "properties": {
        "label": "Rejected way 1430023388",
        "type": "Missing source tag",
        "osm_element": "https://www.openstreetmap.org/way/1430023388",
        "rejection_reason": "Missing source tag",
        "rejection_details": "tags: {'landuse': 'industrial', 'name': 'Central', 'power': 'plant'}",
        "rejection_keywords": "none",
        "timestamp": "2026-07-01T00:50:59.834841",
        "element_type": "way",
        "element_id": 1430023388,
        "country": "Angola",
        "unit_type": "plant"
      }
    },
    {
      "type": "Feature",
      "geometry": {
        "type": "Point",
        "coordinates": [
          14.02062424658359,
          -11.193102947170612
        ]
      },
      "properties": {
        "label": "Rejected way 1431176191",
        "type": "Missing output tag",
        "osm_element": "https://www.openstreetmap.org/way/1431176191",
        "rejection_reason": "Missing output tag",
        "rejection_details": "tags: {'landuse': 'industrial', 'name': 'Geradores', 'plant:method': 'combustion', 'plant:source': 'diesel', 'power': 'plant'}",
        "rejection_keywords": "none",
        "timestamp": "2026-07-01T00:50:59.835004",
        "element_type": "way",
        "element_id": 1431176191,
        "country": "Angola",
        "unit_type": "plant"
      }
    },
    {
      "type": "Feature",
      "geometry": {
        "type": "Point",
        "coordinates": [
          10.15315705722807,
          5.541760742909014
        ]
      },
      "properties": {
        "label": "Rejected way 305094997",
        "type": "Capacity regex no match",
        "osm_element": "https://www.openstreetmap.org/way/305094997",
        "rejection_reason": "Capacity regex no match",
        "rejection_details": "Tag 'plant:output:electricity' has value '25 kW' which could not be parsed",
        "rejection_keywords": "25 kW",
        "timestamp": "2026-07-01T00:52:55.813181",
        "element_type": "way",
        "element_id": 305094997,
        "country": "Cameroon",
        "unit_type": "plant"
      }
    },
    {
      "type": "Feature",
      "geometry": {
        "type": "Point",
        "coordinates": [
          13.408094272998293,
          3.558570513212863
        ]
      },
      "properties": {
        "label": "Rejected way 334876428",
        "type": "Missing source tag",
        "osm_element": "https://www.openstreetmap.org/way/334876428",
        "rejection_reason": "Missing source tag",
        "rejection_details": "tags: {'name': 'Centrale Electrique de Mindourou', 'power': 'plant'}",
        "rejection_keywords": "none",
        "timestamp": "2026-07-01T00:52:55.814262",
        "element_type": "way",
        "element_id": 334876428,
        "country": "Cameroon",
        "unit_type": "plant"
      }
    },
    {
      "type": "Feature",
      "geometry": {
        "type": "Point",
        "coordinates": [
          12.317607187923896,
          5.542625781181867
        ]
      },
      "properties": {
        "label": "Rejected way 354337479",
        "type": "Missing source tag",
        "osm_element": "https://www.openstreetmap.org/way/354337479",
        "rejection_reason": "Missing source tag",
        "rejection_details": "tags: {'name': 'Camp SONEL', 'power': 'plant'}",
        "rejection_keywords": "none",
        "timestamp": "2026-07-01T00:52:55.814431",
        "element_type": "way",
        "element_id": 354337479,
        "country": "Cameroon",
        "unit_type": "plant"
      }
    },
    {
      "type": "Feature",
      "geometry": {
        "type": "Point",
        "coordinates": [
          13.673622624350964,
          4.61433013150938
        ]
      },
      "properties": {
        "label": "Rejected way 479560652",
        "type": "Missing source tag",
        "osm_element": "https://www.openstreetmap.org/way/479560652",
        "rejection_reason": "Missing source tag",
        "rejection_details": "tags: {'landuse': 'industrial', 'name': 'Centrale Thermique de Mokolo 4', 'operator': 'Eneo', 'power': 'plant'}",
        "rejection_keywords": "none",
        "timestamp": "2026-07-01T00:52:55.815739",
        "element_type": "way",
        "element_id": 479560652,
        "country": "Cameroon",
        "unit_type": "plant"
      }
    },
    {
      "type": "Feature",
      "geometry": {
        "type": "Point",
        "coordinates": [
          10.454148747669747,
          3.6974951587269134
        ]
      },
      "properties": {
        "label": "Rejected way 647168950",
        "type": "Missing source tag",
        "osm_element": "https://www.openstreetmap.org/way/647168950",
        "rejection_reason": "Missing source tag",
        "rejection_details": "tags: {'addr:city': 'Messondo - Plateau', 'landuse': 'industrial', 'name': 'Ancien site Sonel', 'operator': 'Sonel', 'power': 'plant'}",
        "rejection_keywords": "none",
        "timestamp": "2026-07-01T00:52:55.815903",
        "element_type": "way",
        "element_id": 647168950,
        "country": "Cameroon",
        "unit_type": "plant"
      }
    },
    {
      "type": "Feature",
      "geometry": {
        "type": "Point",
        "coordinates": [
          9.762637447505174,
          4.034768391430409
        ]
      },
      "properties": {
        "label": "Rejected way 840726197",
        "type": "Missing source tag",
        "osm_element": "https://www.openstreetmap.org/way/840726197",
        "rejection_reason": "Missing source tag",
        "rejection_details": "tags: {'name': 'Centrale thermique de Logbaba II', 'plant:method': 'combustion', 'plant:output:electricity': 'yes', 'power': 'plant'}",
        "rejection_keywords": "none",
        "timestamp": "2026-07-01T00:52:55.818150",
        "element_type": "way",
        "element_id": 840726197,
        "country": "Cameroon",
        "unit_type": "plant"
      }
    },
    {
      "type": "Feature",
      "geometry": {
        "type": "Point",
        "coordinates": [
          13.349555868992615,
          2.73403185711241
        ]
      },
      "properties": {
        "label": "Rejected way 962982893",
        "type": "Missing output tag",
        "osm_element": "https://www.openstreetmap.org/way/962982893",
        "rejection_reason": "Missing output tag",
        "rejection_details": "tags: {'plant:source': 'solar', 'power': 'plant'}",
        "rejection_keywords": "none",
        "timestamp": "2026-07-01T00:52:55.818759",
        "element_type": "way",
        "element_id": 962982893,
        "country": "Cameroon",
        "unit_type": "plant"
      }
    },
    {
      "type": "Feature",
      "geometry": {
        "type": "Point",
        "coordinates": [
          13.719141783523545,
          4.55853018469592
        ]
      },
      "properties": {
        "label": "Rejected way 969327904",
        "type": "Capacity placeholder value",
        "osm_element": "https://www.openstreetmap.org/way/969327904",
        "rejection_reason": "Capacity placeholder value",
        "rejection_details": "Tag 'plant:output:electricity' contains placeholder value 'yes' instead of actual capacity",
        "rejection_keywords": "yes",
        "timestamp": "2026-07-01T00:52:55.818918",
        "element_type": "way",
        "element_id": 969327904,
        "country": "Cameroon",
        "unit_type": "plant"
      }
    },
    {
      "type": "Feature",
      "geometry": {
        "type": "Point",
        "coordinates": [
          12.27201136252804,
          3.1202362477121977
        ]
      },
      "properties": {
        "label": "Rejected way 1006930158",
        "type": "Capacity placeholder value",
        "osm_element": "https://www.openstreetmap.org/way/1006930158",
        "rejection_reason": "Capacity placeholder value",
        "rejection_details": "Tag 'plant:output:electricity' contains placeholder value 'yes' instead of actual capacity",
        "rejection_keywords": "yes",
        "timestamp": "2026-07-01T00:52:55.819046",
        "element_type": "way",
        "element_id": 1006930158,
        "country": "Cameroon",
        "unit_type": "plant"
      }
    },
    {
      "type": "Feature",
      "geometry": {
        "type": "Point",
        "coordinates": [
          9.550883785084864,
          3.8161494961341482
        ]
      },
      "properties": {
        "label": "Rejected way 1056055961",
        "type": "Capacity placeholder value",
        "osm_element": "https://www.openstreetmap.org/way/1056055961",
        "rejection_reason": "Capacity placeholder value",
        "rejection_details": "Tag 'plant:output:electricity' contains placeholder value 'yes' instead of actual capacity",
        "rejection_keywords": "yes",
        "timestamp": "2026-07-01T00:52:55.819169",
        "element_type": "way",
        "element_id": 1056055961,
        "country": "Cameroon",
        "unit_type": "plant"
      }
    },
    {
      "type": "Feature",
      "geometry": {
        "type": "Point",
        "coordinates": [
          9.8395274358666,
          2.3781584797445245
        ]
      },
      "properties": {
        "label": "Rejected way 1068549095",
        "type": "Missing source tag",
        "osm_element": "https://www.openstreetmap.org/way/1068549095",
        "rejection_reason": "Missing source tag",
        "rejection_details": "tags: {'landuse': 'industrial', 'name': 'Centrale Thermique', 'name:de': 'Thermisches Kraftwerk', 'name:es': 'Central Térmica', 'power': 'plant'}",
        "rejection_keywords": "none",
        "timestamp": "2026-07-01T00:52:55.819286",
        "element_type": "way",
        "element_id": 1068549095,
        "country": "Cameroon",
        "unit_type": "plant"
      }
    },
    {
      "type": "Feature",
      "geometry": {
        "type": "Point",
        "coordinates": [
          11.1640479420534,
          2.812776975441295
        ]
      },
      "properties": {
        "label": "Rejected way 1068817277",
        "type": "Missing source tag",
        "osm_element": "https://www.openstreetmap.org/way/1068817277",
        "rejection_reason": "Missing source tag",
        "rejection_details": "tags: {'power': 'plant'}",
        "rejection_keywords": "none",
        "timestamp": "2026-07-01T00:52:55.819406",
        "element_type": "way",
        "element_id": 1068817277,
        "country": "Cameroon",
        "unit_type": "plant"
      }
    },
    {
      "type": "Feature",
      "geometry": {
        "type": "Point",
        "coordinates": [
          11.59242479631816,
          3.9741437711511387
        ]
      },
      "properties": {
        "label": "Rejected way 1116226675",
        "type": "Missing output tag",
        "osm_element": "https://www.openstreetmap.org/way/1116226675",
        "rejection_reason": "Missing output tag",
        "rejection_details": "tags: {'landuse': 'industrial', 'plant:method': 'combustion', 'plant:output:hot_air': 'yes', 'plant:source': 'waste', 'power': 'plant'}",
        "rejection_keywords": "none",
        "timestamp": "2026-07-01T00:52:55.819534",
        "element_type": "way",
        "element_id": 1116226675,
        "country": "Cameroon",
        "unit_type": "plant"
      }
    },
    {
      "type": "Feature",
      "geometry": {
        "type": "Point",
        "coordinates": [
          10.708348256226609,
          3.235105473044449
        ]
      },
      "properties": {
        "label": "Rejected way 1378357766",
        "type": "Capacity placeholder value",
        "osm_element": "https://www.openstreetmap.org/way/1378357766",
        "rejection_reason": "Capacity placeholder value",
        "rejection_details": "Tag 'plant:output:electricity' contains placeholder value 'yes' instead of actual capacity",
        "rejection_keywords": "yes",
        "timestamp": "2026-07-01T00:52:55.820391",
        "element_type": "way",
        "element_id": 1378357766,
        "country": "Cameroon",
        "unit_type": "plant"
      }
    },
    {
      "type": "Feature",
      "geometry": {
        "type": "Point",
        "coordinates": [
          14.542750848851341,
          5.8742281248805535
        ]
      },
      "properties": {
        "label": "Rejected way 1424431610",
        "type": "Missing output tag",
        "osm_element": "https://www.openstreetmap.org/way/1424431610",
        "rejection_reason": "Missing output tag",
        "rejection_details": "tags: {'plant:source': 'solar', 'power': 'plant'}",
        "rejection_keywords": "none",
        "timestamp": "2026-07-01T00:52:55.820513",
        "element_type": "way",
        "element_id": 1424431610,
        "country": "Cameroon",
        "unit_type": "plant"
      }
    },
    {
      "type": "Feature",
      "geometry": {
        "type": "Point",
        "coordinates": [
          14.103506332190284,
          9.866344633024918
        ]
      },
      "properties": {
        "label": "Rejected way 1527661782",
        "type": "Capacity placeholder value",
        "osm_element": "https://www.openstreetmap.org/way/1527661782",
        "rejection_reason": "Capacity placeholder value",
        "rejection_details": "Tag 'plant:output:electricity' contains placeholder value 'yes' instead of actual capacity",
        "rejection_keywords": "yes",
        "timestamp": "2026-07-01T00:52:55.820676",
        "element_type": "way",
        "element_id": 1527661782,
        "country": "Cameroon",
        "unit_type": "plant"
      }
    },
    {
      "type": "Feature",
      "geometry": {
        "type": "Point",
        "coordinates": [
          20.671436931500168,
          5.764102323319184
        ]
      },
      "properties": {
        "label": "Rejected way 1209786695",
        "type": "Missing output tag",
        "osm_element": "https://www.openstreetmap.org/way/1209786695",
        "rejection_reason": "Missing output tag",
        "rejection_details": "tags: {'plant:source': 'solar', 'power': 'plant'}",
        "rejection_keywords": "none",
        "timestamp": "2026-07-01T00:55:02.251736",
        "element_type": "way",
        "element_id": 1209786695,
        "country": "Central African Republic",
        "unit_type": "plant"
      }
    },
    {
      "type": "Feature",
      "geometry": {
        "type": "Point",
        "coordinates": [
          15.78578355016191,
          4.252433060732972
        ]
      },
      "properties": {
        "label": "Rejected way 1424431262",
        "type": "Missing output tag",
        "osm_element": "https://www.openstreetmap.org/way/1424431262",
        "rejection_reason": "Missing output tag",
        "rejection_details": "tags: {'plant:source': 'solar', 'power': 'plant'}",
        "rejection_keywords": "none",
        "timestamp": "2026-07-01T00:55:02.252523",
        "element_type": "way",
        "element_id": 1424431262,
        "country": "Central African Republic",
        "unit_type": "plant"
      }
    },
    {
      "type": "Feature",
      "geometry": {
        "type": "Point",
        "coordinates": [
          29.3077777220395,
          0.05935010377505977
        ]
      },
      "properties": {
        "label": "Rejected relation 14307095",
        "type": "Missing output tag",
        "osm_element": "https://www.openstreetmap.org/relation/14307095",
        "rejection_reason": "Missing output tag",
        "rejection_details": "tags: {'name': 'Microcentrale Katwakirundi', 'plant:source': 'hydro', 'power': 'plant', 'type': 'multipolygon'}",
        "rejection_keywords": "none",
        "timestamp": "2026-07-01T00:55:54.328084",
        "element_type": "relation",
        "element_id": 14307095,
        "country": "Congo, The Democratic Republic of the",
        "unit_type": "plant"
      }
    },
    {
      "type": "Feature",
      "geometry": {
        "type": "Point",
        "coordinates": [
          28.245951992366887,
          -3.058129498736398
        ]
      },
      "properties": {
        "label": "Rejected way 562962908",
        "type": "Missing output tag",
        "osm_element": "https://www.openstreetmap.org/way/562962908",
        "rejection_reason": "Missing output tag",
        "rejection_details": "tags: {'building': 'industrial', 'description': 'Centrale hydroelectrique 1.6MW', 'landuse': 'industrial', 'name': 'centrale de Mugombe', 'plant:method': 'run-of-the-river', 'plant:source': 'hydro', 'power': 'plant'}",
        "rejection_keywords": "none",
        "timestamp": "2026-07-01T00:55:54.334883",
        "element_type": "way",
        "element_id": 562962908,
        "country": "Congo, The Democratic Republic of the",
        "unit_type": "plant"
      }
    },
    {
      "type": "Feature",
      "geometry": {
        "type": "Point",
        "coordinates": [
          29.492701900000004,
          3.3302080499999995
        ]
      },
      "properties": {
        "label": "Rejected way 830029632",
        "type": "Missing output tag",
        "osm_element": "https://www.openstreetmap.org/way/830029632",
        "rejection_reason": "Missing output tag",
        "rejection_details": "tags: {'building': 'yes', 'landuse': 'industrial', 'name': 'CHE Nzoro', 'plant:source': 'hydro', 'power': 'plant', 'start_date': '1934'}",
        "rejection_keywords": "none",
        "timestamp": "2026-07-01T00:55:54.335335",
        "element_type": "way",
        "element_id": 830029632,
        "country": "Congo, The Democratic Republic of the",
        "unit_type": "plant"
      }
    },
    {
      "type": "Feature",
      "geometry": {
        "type": "Point",
        "coordinates": [
          29.408946877538416,
          -1.212418349073255
        ]
      },
      "properties": {
        "label": "Rejected way 848901554",
        "type": "Capacity regex no match",
        "osm_element": "https://www.openstreetmap.org/way/848901554",
        "rejection_reason": "Capacity regex no match",
        "rejection_details": "Tag 'plant:output:electricity' has value '13.8' which could not be parsed",
        "rejection_keywords": "13.8",
        "timestamp": "2026-07-01T00:55:54.336311",
        "element_type": "way",
        "element_id": 848901554,
        "country": "Congo, The Democratic Republic of the",
        "unit_type": "plant"
      }
    },
    {
      "type": "Feature",
      "geometry": {
        "type": "Point",
        "coordinates": [
          30.26233624825948,
          1.6381987257492772
        ]
      },
      "properties": {
        "label": "Rejected way 999335574",
        "type": "Missing output tag",
        "osm_element": "https://www.openstreetmap.org/way/999335574",
        "rejection_reason": "Missing output tag",
        "rejection_details": "tags: {'building': 'yes', 'name': 'CHE Soleniama', 'plant:source': 'hydro', 'power': 'plant', 'source:geometry': 'Maxar_private;Ecopia.AI', 'source:geometry:date': '2019-07-01'}",
        "rejection_keywords": "none",
        "timestamp": "2026-07-01T00:55:54.337989",
        "element_type": "way",
        "element_id": 999335574,
        "country": "Congo, The Democratic Republic of the",
        "unit_type": "plant"
      }
    },
    {
      "type": "Feature",
      "geometry": {
        "type": "Point",
        "coordinates": [
          25.18890214690739,
          -10.883914840056903
        ]
      },
      "properties": {
        "label": "Rejected way 1111737811",
        "type": "Missing output tag",
        "osm_element": "https://www.openstreetmap.org/way/1111737811",
        "rejection_reason": "Missing output tag",
        "rejection_details": "tags: {'landuse': 'industrial', 'name': 'Kakula', 'plant:method': 'combustion', 'plant:source': 'diesel', 'power': 'plant'}",
        "rejection_keywords": "none",
        "timestamp": "2026-07-01T00:55:54.340376",
        "element_type": "way",
        "element_id": 1111737811,
        "country": "Congo, The Democratic Republic of the",
        "unit_type": "plant"
      }
    },
    {
      "type": "Feature",
      "geometry": {
        "type": "Point",
        "coordinates": [
          25.23980633218121,
          -10.81131147027197
        ]
      },
      "properties": {
        "label": "Rejected way 1111853813",
        "type": "Missing output tag",
        "osm_element": "https://www.openstreetmap.org/way/1111853813",
        "rejection_reason": "Missing output tag",
        "rejection_details": "tags: {'landuse': 'industrial', 'name': 'Kansoko', 'plant:method': 'combustion', 'plant:source': 'diesel', 'power': 'plant'}",
        "rejection_keywords": "none",
        "timestamp": "2026-07-01T00:55:54.340522",
        "element_type": "way",
        "element_id": 1111853813,
        "country": "Congo, The Democratic Republic of the",
        "unit_type": "plant"
      }
    },
    {
      "type": "Feature",
      "geometry": {
        "type": "Point",
        "coordinates": [
          25.395971649366572,
          -10.67600169096884
        ]
      },
      "properties": {
        "label": "Rejected way 1111964106",
        "type": "Missing output tag",
        "osm_element": "https://www.openstreetmap.org/way/1111964106",
        "rejection_reason": "Missing output tag",
        "rejection_details": "tags: {'landuse': 'industrial', 'name': 'KCC', 'plant:method': 'combustion', 'plant:source': 'diesel', 'power': 'plant'}",
        "rejection_keywords": "none",
        "timestamp": "2026-07-01T00:55:54.340662",
        "element_type": "way",
        "element_id": 1111964106,
        "country": "Congo, The Democratic Republic of the",
        "unit_type": "plant"
      }
    },
    {
      "type": "Feature",
      "geometry": {
        "type": "Point",
        "coordinates": [
          25.3928832,
          -10.683201549999998
        ]
      },
      "properties": {
        "label": "Rejected way 1111964107",
        "type": "Missing output tag",
        "osm_element": "https://www.openstreetmap.org/way/1111964107",
        "rejection_reason": "Missing output tag",
        "rejection_details": "tags: {'landuse': 'industrial', 'name': 'KCC', 'plant:method': 'combustion', 'plant:source': 'diesel', 'power': 'plant'}",
        "rejection_keywords": "none",
        "timestamp": "2026-07-01T00:55:54.340799",
        "element_type": "way",
        "element_id": 1111964107,
        "country": "Congo, The Democratic Republic of the",
        "unit_type": "plant"
      }
    },
    {
      "type": "Feature",
      "geometry": {
        "type": "Point",
        "coordinates": [
          25.42550583842983,
          -10.64035336681972
        ]
      },
      "properties": {
        "label": "Rejected way 1111968292",
        "type": "Missing output tag",
        "osm_element": "https://www.openstreetmap.org/way/1111968292",
        "rejection_reason": "Missing output tag",
        "rejection_details": "tags: {'landuse': 'industrial', 'name': 'Metakol', 'plant:source': 'diesel', 'power': 'plant'}",
        "rejection_keywords": "none",
        "timestamp": "2026-07-01T00:55:54.341014",
        "element_type": "way",
        "element_id": 1111968292,
        "country": "Congo, The Democratic Republic of the",
        "unit_type": "plant"
      }
    },
    {
      "type": "Feature",
      "geometry": {
        "type": "Point",
        "coordinates": [
          25.42499042320299,
          -10.751037462253585
        ]
      },
      "properties": {
        "label": "Rejected way 1111971269",
        "type": "Capacity placeholder value",
        "osm_element": "https://www.openstreetmap.org/way/1111971269",
        "rejection_reason": "Capacity placeholder value",
        "rejection_details": "Tag 'plant:output:electricity' contains placeholder value 'yes' instead of actual capacity",
        "rejection_keywords": "yes",
        "timestamp": "2026-07-01T00:55:54.341163",
        "element_type": "way",
        "element_id": 1111971269,
        "country": "Congo, The Democratic Republic of the",
        "unit_type": "plant"
      }
    },
    {
      "type": "Feature",
      "geometry": {
        "type": "Point",
        "coordinates": [
          25.42313160881874,
          -10.749415839815676
        ]
      },
      "properties": {
        "label": "Rejected way 1148134129",
        "type": "Capacity placeholder value",
        "osm_element": "https://www.openstreetmap.org/way/1148134129",
        "rejection_reason": "Capacity placeholder value",
        "rejection_details": "Tag 'plant:output:electricity' contains placeholder value 'yes' instead of actual capacity",
        "rejection_keywords": "yes",
        "timestamp": "2026-07-01T00:55:54.341586",
        "element_type": "way",
        "element_id": 1148134129,
        "country": "Congo, The Democratic Republic of the",
        "unit_type": "plant"
      }
    },
    {
      "type": "Feature",
      "geometry": {
        "type": "Point",
        "coordinates": [
          25.793778640598823,
          -10.799544134406238
        ]
      },
      "properties": {
        "label": "Rejected way 1148264836",
        "type": "Missing output tag",
        "osm_element": "https://www.openstreetmap.org/way/1148264836",
        "rejection_reason": "Missing output tag",
        "rejection_details": "tags: {'landuse': 'industrial', 'name': 'Mutanda', 'plant:method': 'combustion', 'plant:source': 'diesel', 'power': 'plant'}",
        "rejection_keywords": "none",
        "timestamp": "2026-07-01T00:55:54.341873",
        "element_type": "way",
        "element_id": 1148264836,
        "country": "Congo, The Democratic Republic of the",
        "unit_type": "plant"
      }
    },
    {
      "type": "Feature",
      "geometry": {
        "type": "Point",
        "coordinates": [
          25.463353934661033,
          -10.701189248069609
        ]
      },
      "properties": {
        "label": "Rejected way 1231754490",
        "type": "Capacity placeholder value",
        "osm_element": "https://www.openstreetmap.org/way/1231754490",
        "rejection_reason": "Capacity placeholder value",
        "rejection_details": "Tag 'plant:output:electricity' contains placeholder value 'yes' instead of actual capacity",
        "rejection_keywords": "yes",
        "timestamp": "2026-07-01T00:55:54.343313",
        "element_type": "way",
        "element_id": 1231754490,
        "country": "Congo, The Democratic Republic of the",
        "unit_type": "plant"
      }
    },
    {
      "type": "Feature",
      "geometry": {
        "type": "Point",
        "coordinates": [
          27.586634497268427,
          -11.628222418754131
        ]
      },
      "properties": {
        "label": "Rejected way 1231912591",
        "type": "Capacity placeholder value",
        "osm_element": "https://www.openstreetmap.org/way/1231912591",
        "rejection_reason": "Capacity placeholder value",
        "rejection_details": "Tag 'plant:output:electricity' contains placeholder value 'yes' instead of actual capacity",
        "rejection_keywords": "yes",
        "timestamp": "2026-07-01T00:55:54.343630",
        "element_type": "way",
        "element_id": 1231912591,
        "country": "Congo, The Democratic Republic of the",
        "unit_type": "plant"
      }
    },
    {
      "type": "Feature",
      "geometry": {
        "type": "Point",
        "coordinates": [
          28.92783047847343,
          -13.180252336813956
        ]
      },
      "properties": {
        "label": "Rejected way 1231977381",
        "type": "Capacity regex no match",
        "osm_element": "https://www.openstreetmap.org/way/1231977381",
        "rejection_reason": "Capacity regex no match",
        "rejection_details": "Tag 'plant:output:electricity' has value '11' which could not be parsed",
        "rejection_keywords": "11",
        "timestamp": "2026-07-01T00:55:54.343755",
        "element_type": "way",
        "element_id": 1231977381,
        "country": "Congo, The Democratic Republic of the",
        "unit_type": "plant"
      }
    },
    {
      "type": "Feature",
      "geometry": {
        "type": "Point",
        "coordinates": [
          20.210411399999998,
          3.38553055
        ]
      },
      "properties": {
        "label": "Rejected way 1245460401",
        "type": "Capacity regex no match",
        "osm_element": "https://www.openstreetmap.org/way/1245460401",
        "rejection_reason": "Capacity regex no match",
        "rejection_details": "Tag 'plant:output:electricity' has value '150 kW' which could not be parsed",
        "rejection_keywords": "150 kW",
        "timestamp": "2026-07-01T00:55:54.343924",
        "element_type": "way",
        "element_id": 1245460401,
        "country": "Congo, The Democratic Republic of the",
        "unit_type": "plant"
      }
    },
    {
      "type": "Feature",
      "geometry": {
        "type": "Point",
        "coordinates": [
          23.672771370732864,
          -6.2195655291317085
        ]
      },
      "properties": {
        "label": "Rejected way 1424434910",
        "type": "Missing output tag",
        "osm_element": "https://www.openstreetmap.org/way/1424434910",
        "rejection_reason": "Missing output tag",
        "rejection_details": "tags: {'plant:source': 'solar', 'power': 'plant'}",
        "rejection_keywords": "none",
        "timestamp": "2026-07-01T00:55:54.345380",
        "element_type": "way",
        "element_id": 1424434910,
        "country": "Congo, The Democratic Republic of the",
        "unit_type": "plant"
      }
    },
    {
      "type": "Feature",
      "geometry": {
        "type": "Point",
        "coordinates": [
          29.600387025717637,
          3.2015114018177493
        ]
      },
      "properties": {
        "label": "Rejected way 1424446375",
        "type": "Missing output tag",
        "osm_element": "https://www.openstreetmap.org/way/1424446375",
        "rejection_reason": "Missing output tag",
        "rejection_details": "tags: {'name': 'Centrale photovoltaïque de Durba', 'plant:source': 'solar', 'power': 'plant'}",
        "rejection_keywords": "none",
        "timestamp": "2026-07-01T00:55:54.345523",
        "element_type": "way",
        "element_id": 1424446375,
        "country": "Congo, The Democratic Republic of the",
        "unit_type": "plant"
      }
    },
    {
      "type": "Feature",
      "geometry": {
        "type": "Point",
        "coordinates": [
          26.36185303751223,
          -10.548828058276156
        ]
      },
      "properties": {
        "label": "Rejected way 1424446586",
        "type": "Missing output tag",
        "osm_element": "https://www.openstreetmap.org/way/1424446586",
        "rejection_reason": "Missing output tag",
        "rejection_details": "tags: {'plant:source': 'solar', 'power': 'plant'}",
        "rejection_keywords": "none",
        "timestamp": "2026-07-01T00:55:54.345687",
        "element_type": "way",
        "element_id": 1424446586,
        "country": "Congo, The Democratic Republic of the",
        "unit_type": "plant"
      }
    },
    {
      "type": "Feature",
      "geometry": {
        "type": "Point",
        "coordinates": [
          25.419778858628323,
          -10.75688384471562
        ]
      },
      "properties": {
        "label": "Rejected way 1424447178",
        "type": "Missing output tag",
        "osm_element": "https://www.openstreetmap.org/way/1424447178",
        "rejection_reason": "Missing output tag",
        "rejection_details": "tags: {'plant:source': 'solar', 'power': 'plant'}",
        "rejection_keywords": "none",
        "timestamp": "2026-07-01T00:55:54.345885",
        "element_type": "way",
        "element_id": 1424447178,
        "country": "Congo, The Democratic Republic of the",
        "unit_type": "plant"
      }
    },
    {
      "type": "Feature",
      "geometry": {
        "type": "Point",
        "coordinates": [
          27.286622264260647,
          -11.610918834486318
        ]
      },
      "properties": {
        "label": "Rejected way 1424448332",
        "type": "Missing output tag",
        "osm_element": "https://www.openstreetmap.org/way/1424448332",
        "rejection_reason": "Missing output tag",
        "rejection_details": "tags: {'plant:source': 'solar', 'power': 'plant'}",
        "rejection_keywords": "none",
        "timestamp": "2026-07-01T00:55:54.346318",
        "element_type": "way",
        "element_id": 1424448332,
        "country": "Congo, The Democratic Republic of the",
        "unit_type": "plant"
      }
    },
    {
      "type": "Feature",
      "geometry": {
        "type": "Point",
        "coordinates": [
          25.458511627491056,
          -10.699733213450521
        ]
      },
      "properties": {
        "label": "Rejected way 1455610555",
        "type": "Missing output tag",
        "osm_element": "https://www.openstreetmap.org/way/1455610555",
        "rejection_reason": "Missing output tag",
        "rejection_details": "tags: {'plant:source': 'solar', 'power': 'plant'}",
        "rejection_keywords": "none",
        "timestamp": "2026-07-01T00:55:54.346950",
        "element_type": "way",
        "element_id": 1455610555,
        "country": "Congo, The Democratic Republic of the",
        "unit_type": "plant"
      }
    },
    {
      "type": "Feature",
      "geometry": {
        "type": "Point",
        "coordinates": [
          16.637433444790158,
          7.912542148619535
        ]
      },
      "properties": {
        "label": "Rejected way 189490518",
        "type": "Missing source tag",
        "osm_element": "https://www.openstreetmap.org/way/189490518",
        "rejection_reason": "Missing source tag",
        "rejection_details": "tags: {'barrier': 'wall', 'name': 'Centrale Électrique محطة كهرباء', 'name:ar': 'محطة كهرباء', 'name:fr': 'Centrale Électrique', 'operator': 'Government', 'power': 'plant', 'project:eurosha_2012': 'yes', 'source': 'GPS', 'source:date': '2012-11-06'}",
        "rejection_keywords": "none",
        "timestamp": "2026-07-01T00:59:15.452676",
        "element_type": "way",
        "element_id": 189490518,
        "country": "Chad",
        "unit_type": "plant"
      }
    },
    {
      "type": "Feature",
      "geometry": {
        "type": "Point",
        "coordinates": [
          16.794519089865936,
          8.53198764767908
        ]
      },
      "properties": {
        "label": "Rejected way 1136273735",
        "type": "Missing output tag",
        "osm_element": "https://www.openstreetmap.org/way/1136273735",
        "rejection_reason": "Missing output tag",
        "rejection_details": "tags: {'landuse': 'industrial', 'name': 'Doba Kome Power Plant', 'plant:source': 'diesel', 'power': 'plant', 'source': 'https://documents1.worldbank.org/curated/en/289441468743146491/pdf/multi-page.pdf', 'wikipedia': 'en:List of power stations in Chad'}",
        "rejection_keywords": "none",
        "timestamp": "2026-07-01T00:59:15.453202",
        "element_type": "way",
        "element_id": 1136273735,
        "country": "Chad",
        "unit_type": "plant"
      }
    },
    {
      "type": "Feature",
      "geometry": {
        "type": "Point",
        "coordinates": [
          15.177424526376255,
          12.060434115862222
        ]
      },
      "properties": {
        "label": "Rejected way 1424429671",
        "type": "Capacity regex no match",
        "osm_element": "https://www.openstreetmap.org/way/1424429671",
        "rejection_reason": "Capacity regex no match",
        "rejection_details": "Tag 'plant:output:electricity' has value '30 MWc' which could not be parsed",
        "rejection_keywords": "30 MWc",
        "timestamp": "2026-07-01T00:59:15.453745",
        "element_type": "way",
        "element_id": 1424429671,
        "country": "Chad",
        "unit_type": "plant"
      }
    },
    {
      "type": "Feature",
      "geometry": {
        "type": "Point",
        "coordinates": [
          15.177424526376255,
          12.060434115862222
        ]
      },
      "properties": {
        "label": "Rejected way 1424429671",
        "type": "Unsupported capacity unit",
        "osm_element": "https://www.openstreetmap.org/way/1424429671",
        "rejection_reason": "Unsupported capacity unit",
        "rejection_details": "Tag 'plant:output:electricity' has value '30 MWc' which could not be parsed",
        "rejection_keywords": "30 MWc",
        "timestamp": "2026-07-01T00:59:15.453761",
        "element_type": "way",
        "element_id": 1424429671,
        "country": "Chad",
        "unit_type": "plant"
      }
    },
    {
      "type": "Feature",
      "geometry": {
        "type": "Point",
        "coordinates": [
          18.717993091180407,
          12.181939375615022
        ]
      },
      "properties": {
        "label": "Rejected way 1424430168",
        "type": "Missing output tag",
        "osm_element": "https://www.openstreetmap.org/way/1424430168",
        "rejection_reason": "Missing output tag",
        "rejection_details": "tags: {'plant:source': 'solar', 'power': 'plant'}",
        "rejection_keywords": "none",
        "timestamp": "2026-07-01T00:59:15.454117",
        "element_type": "way",
        "element_id": 1424430168,
        "country": "Chad",
        "unit_type": "plant"
      }
    },
    {
      "type": "Feature",
      "geometry": {
        "type": "Point",
        "coordinates": [
          22.25909568092242,
          15.1370569832565
        ]
      },
      "properties": {
        "label": "Rejected way 1424431064",
        "type": "Missing output tag",
        "osm_element": "https://www.openstreetmap.org/way/1424431064",
        "rejection_reason": "Missing output tag",
        "rejection_details": "tags: {'plant:source': 'solar', 'power': 'plant'}",
        "rejection_keywords": "none",
        "timestamp": "2026-07-01T00:59:15.454260",
        "element_type": "way",
        "element_id": 1424431064,
        "country": "Chad",
        "unit_type": "plant"
      }
    },
    {
      "type": "Feature",
      "geometry": {
        "type": "Point",
        "coordinates": [
          18.370030388448843,
          13.216701910094667
        ]
      },
      "properties": {
        "label": "Rejected way 1424432275",
        "type": "Missing output tag",
        "osm_element": "https://www.openstreetmap.org/way/1424432275",
        "rejection_reason": "Missing output tag",
        "rejection_details": "tags: {'plant:source': 'solar', 'power': 'plant'}",
        "rejection_keywords": "none",
        "timestamp": "2026-07-01T00:59:15.454400",
        "element_type": "way",
        "element_id": 1424432275,
        "country": "Chad",
        "unit_type": "plant"
      }
    },
    {
      "type": "Feature",
      "geometry": {
        "type": "Point",
        "coordinates": [
          5.629251750071884,
          -1.40605477924591
        ]
      },
      "properties": {
        "label": "Rejected way 508780531",
        "type": "Capacity placeholder value",
        "osm_element": "https://www.openstreetmap.org/way/508780531",
        "rejection_reason": "Capacity placeholder value",
        "rejection_details": "Tag 'plant:output:electricity' contains placeholder value 'yes' instead of actual capacity",
        "rejection_keywords": "yes",
        "timestamp": "2026-07-01T01:04:04.362337",
        "element_type": "way",
        "element_id": 508780531,
        "country": "Equatorial Guinea",
        "unit_type": "plant"
      }
    },
    {
      "type": "Feature",
      "geometry": {
        "type": "Point",
        "coordinates": [
          5.623865680735216,
          -1.4111271259243892
        ]
      },
      "properties": {
        "label": "Rejected way 508780585",
        "type": "Capacity placeholder value",
        "osm_element": "https://www.openstreetmap.org/way/508780585",
        "rejection_reason": "Capacity placeholder value",
        "rejection_details": "Tag 'plant:output:electricity' contains placeholder value 'yes' instead of actual capacity",
        "rejection_keywords": "yes",
        "timestamp": "2026-07-01T01:04:04.362533",
        "element_type": "way",
        "element_id": 508780585,
        "country": "Equatorial Guinea",
        "unit_type": "plant"
      }
    },
    {
      "type": "Feature",
      "geometry": {
        "type": "Point",
        "coordinates": [
          5.619616661505517,
          -1.4111151235305581
        ]
      },
      "properties": {
        "label": "Rejected way 859378298",
        "type": "Capacity placeholder value",
        "osm_element": "https://www.openstreetmap.org/way/859378298",
        "rejection_reason": "Capacity placeholder value",
        "rejection_details": "Tag 'plant:output:electricity' contains placeholder value 'yes' instead of actual capacity",
        "rejection_keywords": "yes",
        "timestamp": "2026-07-01T01:04:04.363014",
        "element_type": "way",
        "element_id": 859378298,
        "country": "Equatorial Guinea",
        "unit_type": "plant"
      }
    },
    {
      "type": "Feature",
      "geometry": {
        "type": "Point",
        "coordinates": [
          5.630111491948659,
          -1.404842270127317
        ]
      },
      "properties": {
        "label": "Rejected way 891684759",
        "type": "Capacity placeholder value",
        "osm_element": "https://www.openstreetmap.org/way/891684759",
        "rejection_reason": "Capacity placeholder value",
        "rejection_details": "Tag 'plant:output:electricity' contains placeholder value 'yes' instead of actual capacity",
        "rejection_keywords": "yes",
        "timestamp": "2026-07-01T01:04:04.363180",
        "element_type": "way",
        "element_id": 891684759,
        "country": "Equatorial Guinea",
        "unit_type": "plant"
      }
    },
    {
      "type": "Feature",
      "geometry": {
        "type": "Point",
        "coordinates": [
          10.285787093610582,
          1.3437171176450042
        ]
      },
      "properties": {
        "label": "Rejected way 943610832",
        "type": "Missing source tag",
        "osm_element": "https://www.openstreetmap.org/way/943610832",
        "rejection_reason": "Missing source tag",
        "rejection_details": "tags: {'landuse': 'industrial', 'power': 'plant'}",
        "rejection_keywords": "none",
        "timestamp": "2026-07-01T01:04:04.363305",
        "element_type": "way",
        "element_id": 943610832,
        "country": "Equatorial Guinea",
        "unit_type": "plant"
      }
    },
    {
      "type": "Feature",
      "geometry": {
        "type": "Point",
        "coordinates": [
          8.71537256405845,
          3.7731023806092265
        ]
      },
      "properties": {
        "label": "Rejected way 1350937109",
        "type": "Capacity placeholder value",
        "osm_element": "https://www.openstreetmap.org/way/1350937109",
        "rejection_reason": "Capacity placeholder value",
        "rejection_details": "Tag 'plant:output:electricity' contains placeholder value 'yes' instead of actual capacity",
        "rejection_keywords": "yes",
        "timestamp": "2026-07-01T01:04:04.363601",
        "element_type": "way",
        "element_id": 1350937109,
        "country": "Equatorial Guinea",
        "unit_type": "plant"
      }
    },
    {
      "type": "Feature",
      "geometry": {
        "type": "Point",
        "coordinates": [
          13.545839300827184,
          -1.76260468031447
        ]
      },
      "properties": {
        "label": "Rejected way 510004615",
        "type": "Missing output tag",
        "osm_element": "https://www.openstreetmap.org/way/510004615",
        "rejection_reason": "Missing output tag",
        "rejection_details": "tags: {'building': 'yes', 'plant:method': 'run-of-the-river', 'plant:source': 'hydro', 'power': 'plant'}",
        "rejection_keywords": "none",
        "timestamp": "2026-07-01T01:06:44.410970",
        "element_type": "way",
        "element_id": 510004615,
        "country": "Gabon",
        "unit_type": "plant"
      }
    },
    {
      "type": "Feature",
      "geometry": {
        "type": "Point",
        "coordinates": [
          9.505235987210918,
          0.34469127286328816
        ]
      },
      "properties": {
        "label": "Rejected way 542385732",
        "type": "Missing source tag",
        "osm_element": "https://www.openstreetmap.org/way/542385732",
        "rejection_reason": "Missing source tag",
        "rejection_details": "tags: {'landuse': 'industrial', 'name': 'Centre SEEG Akournam Owendo', 'power': 'plant'}",
        "rejection_keywords": "none",
        "timestamp": "2026-07-01T01:06:44.411551",
        "element_type": "way",
        "element_id": 542385732,
        "country": "Gabon",
        "unit_type": "plant"
      }
    },
    {
      "type": "Feature",
      "geometry": {
        "type": "Point",
        "coordinates": [
          13.54448449890475,
          -1.7630980450969214
        ]
      },
      "properties": {
        "label": "Rejected way 662920186",
        "type": "Missing output tag",
        "osm_element": "https://www.openstreetmap.org/way/662920186",
        "rejection_reason": "Missing output tag",
        "rejection_details": "tags: {'building': 'yes', 'plant:method': 'run-of-the-river', 'plant:source': 'hydro', 'power': 'plant'}",
        "rejection_keywords": "none",
        "timestamp": "2026-07-01T01:06:44.412099",
        "element_type": "way",
        "element_id": 662920186,
        "country": "Gabon",
        "unit_type": "plant"
      }
    },
    {
      "type": "Feature",
      "geometry": {
        "type": "Point",
        "coordinates": [
          13.015030549999997,
          -1.8243494999999998
        ]
      },
      "properties": {
        "label": "Rejected way 1190190038",
        "type": "Missing source tag",
        "osm_element": "https://www.openstreetmap.org/way/1190190038",
        "rejection_reason": "Missing source tag",
        "rejection_details": "tags: {'addr:city': 'Bakoumba', 'addr:province': 'Haut-Ogooué', 'building': 'yes', 'power': 'plant'}",
        "rejection_keywords": "none",
        "timestamp": "2026-07-01T01:06:44.412641",
        "element_type": "way",
        "element_id": 1190190038,
        "country": "Gabon",
        "unit_type": "plant"
      }
    },
    {
      "type": "Feature",
      "geometry": {
        "type": "Point",
        "coordinates": [
          8.75534019319301,
          -0.7564054045843088
        ]
      },
      "properties": {
        "label": "Rejected way 1295798802",
        "type": "Capacity placeholder value",
        "osm_element": "https://www.openstreetmap.org/way/1295798802",
        "rejection_reason": "Capacity placeholder value",
        "rejection_details": "Tag 'plant:output:electricity' contains placeholder value 'yes' instead of actual capacity",
        "rejection_keywords": "yes",
        "timestamp": "2026-07-01T01:06:44.412821",
        "element_type": "way",
        "element_id": 1295798802,
        "country": "Gabon",
        "unit_type": "plant"
      }
    },
    {
      "type": "Feature",
      "geometry": {
        "type": "Point",
        "coordinates": [
          9.525818418958446,
          0.31627444314757674
        ]
      },
      "properties": {
        "label": "Rejected way 1418662704",
        "type": "Missing output tag",
        "osm_element": "https://www.openstreetmap.org/way/1418662704",
        "rejection_reason": "Missing output tag",
        "rejection_details": "tags: {'plant:method': 'combustion', 'plant:source': 'oil', 'power': 'plant'}",
        "rejection_keywords": "none",
        "timestamp": "2026-07-01T01:06:44.413403",
        "element_type": "way",
        "element_id": 1418662704,
        "country": "Gabon",
        "unit_type": "plant"
      }
    },
    {
      "type": "Feature",
      "geometry": {
        "type": "Point",
        "coordinates": [
          9.520811797200725,
          0.31459935944501527
        ]
      },
      "properties": {
        "label": "Rejected way 1418662705",
        "type": "Missing output tag",
        "osm_element": "https://www.openstreetmap.org/way/1418662705",
        "rejection_reason": "Missing output tag",
        "rejection_details": "tags: {'name': 'Alenakiri power plant', 'plant:method': 'combustion', 'plant:source': 'oil', 'power': 'plant'}",
        "rejection_keywords": "none",
        "timestamp": "2026-07-01T01:06:44.413660",
        "element_type": "way",
        "element_id": 1418662705,
        "country": "Gabon",
        "unit_type": "plant"
      }
    },
    {
      "type": "Feature",
      "geometry": {
        "type": "Point",
        "coordinates": [
          6.5462061,
          0.33430954999999996
        ]
      },
      "properties": {
        "label": "Rejected way 1288616875",
        "type": "Missing output tag",
        "osm_element": "https://www.openstreetmap.org/way/1288616875",
        "rejection_reason": "Missing output tag",
        "rejection_details": "tags: {'name': 'Aproveitamento Hidroelétrico do Contador', 'name:en': 'Contador hydropower plant', 'plant:source': 'hydro', 'power': 'plant', 'start_date': '1967'}",
        "rejection_keywords": "none",
        "timestamp": "2026-07-01T01:18:07.586957",
        "element_type": "way",
        "element_id": 1288616875,
        "country": "Sao Tome and Principe",
        "unit_type": "plant"
      }
    }
  ]
}